{
  "type": "FeatureCollection",
  "features": [
    {
      "type": "Feature",
      "properties": {
        "norad_id": 31005,
        "name": "FENGYUN 1C DEB",
        "group": "fengyun-1c-debris",
        "lat": 63.99809050124815,
        "lon": 105.18409189664396,
        "alt_km": 985.4818702824268,
        "timestamp": "2025-12-15T19:00:45.636607+00:00",
        "meta_object_name": "FENGYUN 1C DEB",
        "meta_object_id": "1999-025BCX",
        "meta_epoch": "2025-12-14T20:52:14.335968",
        "meta_mean_motion": 13.83285096,
        "meta_eccentricity": 0.01806535,
        "meta_inclination": 98.6129,
        "meta_ra_of_asc_node": 122.4413,
        "meta_arg_of_pericenter": 319.5816,
        "meta_mean_anomaly": 192.0559,
        "meta_ephemeris_type": 0,
        "meta_classification_type": "U",
        "meta_norad_cat_id": 31005,
        "meta_element_set_no": 999,
        "meta_rev_at_epoch": 94310,
        "meta_bstar": 0.0012186171,
        "meta_mean_motion_dot": 1.477e-05,
        "meta_mean_motion_ddot": 0,
        "tle_line1": "1 31005U 99025BCX 25348.86961037  .00001477  00000+0  12186-2 0  9994",
        "tle_line2": "2 31005  98.6129 122.4413 0180653 319.5816 192.0559 13.83285096943102"
      },
      "geometry": {
        "type": "Point",
        "coordinates": [
          105.18409189664396,
          63.99809050124815
        ]
      }
    },
    {
      "type": "Feature",
      "properties": {
        "norad_id": 31007,
        "name": "FENGYUN 1C DEB",
        "group": "fengyun-1c-debris",
        "lat": -56.051167254959005,
        "lon": 149.32079122285612,
        "alt_km": 746.2717383952113,
        "timestamp": "2025-12-15T19:00:45.636617+00:00",
        "meta_object_name": "FENGYUN 1C DEB",
        "meta_object_id": "1999-025BCZ",
        "meta_epoch": "2025-12-14T22:10:30.030816",
        "meta_mean_motion": 14.58699131,
        "meta_eccentricity": 0.00672513,
        "meta_inclination": 98.0875,
        "meta_ra_of_asc_node": 340.6692,
        "meta_arg_of_pericenter": 31.3824,
        "meta_mean_anomaly": 329.1361,
        "meta_ephemeris_type": 0,
        "meta_classification_type": "U",
        "meta_norad_cat_id": 31007,
        "meta_element_set_no": 999,
        "meta_rev_at_epoch": 98126,
        "meta_bstar": 0.0015177062,
        "meta_mean_motion_dot": 7.262e-05,
        "meta_mean_motion_ddot": 0,
        "tle_line1": "1 31007U 99025BCZ 25348.92395869  .00007262  00000+0  15177-2 0  9998",
        "tle_line2": "2 31007  98.0875 340.6692 0067251  31.3824 329.1361 14.58699131981260"
      },
      "geometry": {
        "type": "Point",
        "coordinates": [
          149.32079122285612,
          -56.051167254959005
        ]
      }
    },
    {
      "type": "Feature",
      "properties": {
        "norad_id": 31009,
        "name": "FENGYUN 1C DEB",
        "group": "fengyun-1c-debris",
        "lat": -46.33437164961603,
        "lon": 156.08760804243374,
        "alt_km": 860.7807048153982,
        "timestamp": "2025-12-15T19:00:45.636627+00:00",
        "meta_object_name": "FENGYUN 1C DEB",
        "meta_object_id": "1999-025BDB",
        "meta_epoch": "2025-12-14T23:11:59.819712",
        "meta_mean_motion": 14.0036528,
        "meta_eccentricity": 0.00529129,
        "meta_inclination": 98.8972,
        "meta_ra_of_asc_node": 344.7302,
        "meta_arg_of_pericenter": 230.9436,
        "meta_mean_anomaly": 156.5904,
        "meta_ephemeris_type": 0,
        "meta_classification_type": "U",
        "meta_norad_cat_id": 31009,
        "meta_element_set_no": 999,
        "meta_rev_at_epoch": 95892,
        "meta_bstar": 0.00012428162,
        "meta_mean_motion_dot": 1.43e-06,
        "meta_mean_motion_ddot": 0,
        "tle_line1": "1 31009U 99025BDB 25348.96666458  .00000143  00000+0  12428-3 0  9997",
        "tle_line2": "2 31009  98.8972 344.7302 0052912 230.9436 156.5904 14.00365280958929"
      },
      "geometry": {
        "type": "Point",
        "coordinates": [
          156.08760804243374,
          -46.33437164961603
        ]
      }
    },
    {
      "type": "Feature",
      "properties": {
        "norad_id": 31010,
        "name": "FENGYUN 1C DEB",
        "group": "fengyun-1c-debris",
        "lat": -27.75441335262453,
        "lon": -48.468257302564524,
        "alt_km": 871.3730014493631,
        "timestamp": "2025-12-15T19:00:45.636638+00:00",
        "meta_object_name": "FENGYUN 1C DEB",
        "meta_object_id": "1999-025BDC",
        "meta_epoch": "2025-12-13T08:46:34.415040",
        "meta_mean_motion": 14.25824069,
        "meta_eccentricity": 0.01132946,
        "meta_inclination": 101.7244,
        "meta_ra_of_asc_node": 134.5693,
        "meta_arg_of_pericenter": 352.8328,
        "meta_mean_anomaly": 7.1217,
        "meta_ephemeris_type": 0,
        "meta_classification_type": "U",
        "meta_norad_cat_id": 31010,
        "meta_element_set_no": 999,
        "meta_rev_at_epoch": 95638,
        "meta_bstar": 0.0055012585,
        "meta_mean_motion_dot": 0.00013958,
        "meta_mean_motion_ddot": 0,
        "tle_line1": "1 31010U 99025BDC 25347.36567610  .00013958  00000+0  55013-2 0  9996",
        "tle_line2": "2 31010 101.7244 134.5693 0113294 352.8328   7.1217 14.25824069956388"
      },
      "geometry": {
        "type": "Point",
        "coordinates": [
          -48.468257302564524,
          -27.75441335262453
        ]
      }
    },
    {
      "type": "Feature",
      "properties": {
        "norad_id": 31012,
        "name": "FENGYUN 1C DEB",
        "group": "fengyun-1c-debris",
        "lat": -25.492724355586574,
        "lon": -107.7563421954849,
        "alt_km": 805.79124556017,
        "timestamp": "2025-12-15T19:00:45.636650+00:00",
        "meta_object_name": "FENGYUN 1C DEB",
        "meta_object_id": "1999-025BDE",
        "meta_epoch": "2025-12-14T16:29:13.275744",
        "meta_mean_motion": 14.2786507,
        "meta_eccentricity": 0.00813491,
        "meta_inclination": 98.9116,
        "meta_ra_of_asc_node": 246.8259,
        "meta_arg_of_pericenter": 245.6993,
        "meta_mean_anomaly": 169.5971,
        "meta_ephemeris_type": 0,
        "meta_classification_type": "U",
        "meta_norad_cat_id": 31012,
        "meta_element_set_no": 999,
        "meta_rev_at_epoch": 97775,
        "meta_bstar": 0.0002211918,
        "meta_mean_motion_dot": 5.2e-06,
        "meta_mean_motion_ddot": 0,
        "tle_line1": "1 31012U 99025BDE 25348.68695921  .00000520  00000+0  22119-3 0  9994",
        "tle_line2": "2 31012  98.9116 246.8259 0081349 245.6993 169.5971 14.27865070977755"
      },
      "geometry": {
        "type": "Point",
        "coordinates": [
          -107.7563421954849,
          -25.492724355586574
        ]
      }
    },
    {
      "type": "Feature",
      "properties": {
        "norad_id": 31014,
        "name": "FENGYUN 1C DEB",
        "group": "fengyun-1c-debris",
        "lat": -81.01786905007965,
        "lon": 64.25044915173122,
        "alt_km": 898.7186126529377,
        "timestamp": "2025-12-15T19:00:45.636660+00:00",
        "meta_object_name": "FENGYUN 1C DEB",
        "meta_object_id": "1999-025BDG",
        "meta_epoch": "2025-12-14T21:16:31.516896",
        "meta_mean_motion": 13.98492485,
        "meta_eccentricity": 0.00878957,
        "meta_inclination": 98.8691,
        "meta_ra_of_asc_node": 324.4258,
        "meta_arg_of_pericenter": 187.4548,
        "meta_mean_anomaly": 202.7471,
        "meta_ephemeris_type": 0,
        "meta_classification_type": "U",
        "meta_norad_cat_id": 31014,
        "meta_element_set_no": 999,
        "meta_rev_at_epoch": 95866,
        "meta_bstar": 0.00018808423,
        "meta_mean_motion_dot": 2.36e-06,
        "meta_mean_motion_ddot": 0,
        "tle_line1": "1 31014U 99025BDG 25348.88647589  .00000236  00000+0  18808-3 0  9999",
        "tle_line2": "2 31014  98.8691 324.4258 0087895 187.4548 202.7471 13.98492485958664"
      },
      "geometry": {
        "type": "Point",
        "coordinates": [
          64.25044915173122,
          -81.01786905007965
        ]
      }
    },
    {
      "type": "Feature",
      "properties": {
        "norad_id": 31016,
        "name": "FENGYUN 1C DEB",
        "group": "fengyun-1c-debris",
        "lat": 13.339824973600347,
        "lon": 3.5107840837792716,
        "alt_km": 815.7825803852538,
        "timestamp": "2025-12-15T19:00:45.636684+00:00",
        "meta_object_name": "FENGYUN 1C DEB",
        "meta_object_id": "1999-025BDJ",
        "meta_epoch": "2025-12-14T18:04:28.400736",
        "meta_mean_motion": 14.30497937,
        "meta_eccentricity": 0.01119791,
        "meta_inclination": 98.4364,
        "meta_ra_of_asc_node": 4.5195,
        "meta_arg_of_pericenter": 268.1605,
        "meta_mean_anomaly": 156.1968,
        "meta_ephemeris_type": 0,
        "meta_classification_type": "U",
        "meta_norad_cat_id": 31016,
        "meta_element_set_no": 999,
        "meta_rev_at_epoch": 97499,
        "meta_bstar": 0.00033619297,
        "meta_mean_motion_dot": 8.93e-06,
        "meta_mean_motion_ddot": 0,
        "tle_line1": "1 31016U 99025BDJ 25348.75310649  .00000893  00000+0  33619-3 0  9997",
        "tle_line2": "2 31016  98.4364   4.5195 0111979 268.1605 156.1968 14.30497937974998"
      },
      "geometry": {
        "type": "Point",
        "coordinates": [
          3.5107840837792716,
          13.339824973600347
        ]
      }
    }
  ]
}